NORAD_CAT_ID,OBJECT_NAME,OBJECT_TYPE,EPOCH,MEAN_MOTION,ECCENTRICITY,INCLINATION,RA_OF_ASC_NODE,ARG_OF_PERICENTER,MEAN_ANOMALY,BSTAR,MEAN_MOTION_DOT,MEAN_MOTION_DDOT,TLE_LINE0,TLE_LINE1,TLE_LINE2,SEMIMAJOR_AXIS,PERIOD,APOGEE,PERIGEE,DECAYED
51115.0,STARLINK-3397,PAYLOAD,2024-03-12 16:42:02,15.08828333,0.0001616,53.2177,312.7283,100.1557,259.9618,7.6243e-05,9.25e-06,0.0,0 STARLINK-3397,1 51115U 22005M   24072.69586659  .00000925  00000-0  76243-4 0  9993,2 51115  53.2177 312.7283 0001616 100.1557 259.9618 15.08828333120238,6917.916,95.438,540.899,538.663,0.0
51115.0,STARLINK-3397,PAYLOAD,2024-03-12 23:03:35,15.08827505,0.0001597,53.2174,311.5382,97.6467,262.4707,5.8681e-05,6.46e-06,0.0,0 STARLINK-3397,1 51115U 22005M   24072.96082961  .00000646  00000-0  58681-4 0  9996,2 51115  53.2174 311.5382 0001597  97.6467 262.4707 15.08827505119168,6917.919,95.438,540.888,538.679,0.0
51115.0,STARLINK-3397,PAYLOAD,2024-03-13 08:35:54,15.08833776,0.000154,53.2169,309.7505,80.3822,279.7344,5.6671e-05,6.14e-06,0.0,0 STARLINK-3397,1 51115U 22005M   24073.35826762  .00000614  00000-0  56671-4 0  9997,2 51115  53.2169 309.7505 0001540  80.3822 279.7344 15.08833776119222,6917.899,95.438,540.83,538.699,0.0
51115.0,STARLINK-3397,PAYLOAD,2024-03-13 22:54:22,15.08837992,0.0001245,53.2181,307.0728,69.5617,290.5509,8.8181e-06,-1.48e-06,0.0,0 STARLINK-3397,1 51115U 22005M   24073.95442796 -.00000148  00000-0  88181-5 0  9999,2 51115  53.2181 307.0728 0001245  69.5617 290.5509 15.08837992119315,6917.887,95.438,540.613,538.89,0.0
51115.0,STARLINK-3397,PAYLOAD,2024-03-14 00:29:45,15.08840209,0.0001287,53.2176,306.7762,74.4996,285.6138,2.9699e-05,1.85e-06,0.0,0 STARLINK-3397,1 51115U 22005M   24074.02066606  .00000185  00000-0  29699-4 0  9998,2 51115  53.2176 306.7762 0001287  74.4996 285.6138 15.08840209120437,6917.88,95.438,540.635,538.854,0.0
51115.0,STARLINK-3397,PAYLOAD,2024-03-14 08:26:40,15.08840871,0.0001438,53.2186,305.2894,75.6606,284.4545,0.00023572,3.466e-05,0.0,0 STARLINK-3397,1 51115U 22005M   24074.35185846  .00003466  00000-0  23572-3 0  9990,2 51115  53.2186 305.2894 0001438  75.6606 284.4545 15.08840871120486,6917.878,95.437,540.738,538.748,0.0
51115.0,STARLINK-3397,PAYLOAD,2024-03-14 21:09:46,15.08832938,0.000104,53.2163,302.9102,58.2491,301.8602,3.7055e-05,3.02e-06,0.0,0 STARLINK-3397,1 51115U 22005M   24074.88179097  .00000302  00000-0  37055-4 0  9997,2 51115  53.2163 302.9102 0001040  58.2491 301.8602 15.08832938120567,6917.902,95.438,540.486,539.048,0.0
51115.0,STARLINK-3397,PAYLOAD,2024-03-15 14:39:00,15.08838868,0.0001274,53.2164,299.6393,76.0799,284.0335,6.5541e-05,7.55e-06,0.0,0 STARLINK-3397,1 51115U 22005M   24075.61042757  .00000755  00000-0  65541-4 0  9994,2 51115  53.2164 299.6393 0001274  76.0799 284.0335 15.08838868120675,6917.884,95.438,540.63,538.868,0.0
51115.0,STARLINK-3397,PAYLOAD,2024-03-15 22:35:56,15.08849661,0.0001253,53.2167,298.1542,79.6218,280.4916,-2.7635e-05,-7.28e-06,0.0,0 STARLINK-3397,1 51115U 22005M   24075.94162429 -.00000728  00000-0 -27635-4 0  9993,2 51115  53.2167 298.1542 0001253  79.6218 280.4916 15.08849661119610,6917.851,95.437,540.583,538.849,0.0
51115.0,STARLINK-3397,PAYLOAD,2024-03-16 00:11:19,15.08850892,0.0001284,53.2165,297.8565,77.1483,282.9653,-2.6384e-05,-7.08e-06,0.0,0 STARLINK-3397,1 51115U 22005M   24076.00786331 -.00000708  00000-0 -26384-4 0  9993,2 51115  53.2165 297.8565 0001284  77.1483 282.9653 15.08850892120738,6917.847,95.437,540.6,538.824,0.0
51115.0,STARLINK-3397,PAYLOAD,2024-03-16 14:29:49,15.08818901,0.0001165,53.2172,295.1795,86.9378,273.1748,-5.4594e-05,-1.156e-05,0.0,0 STARLINK-3397,1 51115U 22005M   24076.60404701 -.00001156  00000-0 -54594-4 0  9999,2 51115  53.2172 295.1795 0001165  86.9378 273.1748 15.08818901119719,6917.945,95.439,540.616,539.004,0.0
51115.0,STARLINK-3397,PAYLOAD,2024-03-16 20:51:22,15.08823292,0.0002236,53.2164,293.9912,40.1311,319.9846,-6.146e-05,-1.266e-05,0.0,0 STARLINK-3397,1 51115U 22005M   24076.86901170 -.00001266  00000-0 -61460-4 0  9991,2 51115  53.2164 293.9912 0002236  40.1311 319.9846 15.08823292120861,6917.931,95.439,541.343,538.25,0.0
51115.0,STARLINK-3397,PAYLOAD,2024-03-17 00:02:07,15.08837953,0.0001191,53.216,293.3962,94.8736,265.2392,5.3158e-05,5.58e-06,0.0,0 STARLINK-3397,1 51115U 22005M   24077.00147607  .00000558  00000-0  53158-4 0  9991,2 51115  53.2160 293.3962 0001191  94.8736 265.2392 15.08837953120882,6917.887,95.438,540.576,538.928,0.0
51115.0,STARLINK-3397,PAYLOAD,2024-03-17 20:42:07,15.0885401,0.0001193,53.2173,289.5306,81.0008,279.112,0.00015676,2.209e-05,0.0,0 STARLINK-3397,1 51115U 22005M   24077.86258368  .00002209  00000-0  15676-3 0  9999,2 51115  53.2173 289.5306 0001193  81.0008 279.1120 15.08854010121019,6917.838,95.437,540.528,538.877,0.0
51115.0,STARLINK-3397,PAYLOAD,2024-03-17 23:52:53,15.08857233,0.0001108,53.217,288.935,77.2748,282.8368,0.00018056,2.588e-05,0.0,0 STARLINK-3397,1 51115U 22005M   24077.99506012  .00002588  00000-0  18056-3 0  9990,2 51115  53.2170 288.9350 0001108  77.2748 282.8368 15.08857233119924,6917.828,95.436,540.459,538.926,0.0
51115.0,STARLINK-3397,PAYLOAD,2024-03-18 20:32:53,15.08845329,0.000123,53.2168,285.0674,93.8679,266.2453,0.00043627,6.663e-05,0.0,0 STARLINK-3397,1 51115U 22005M   24078.85617501  .00006663  00000-0  43627-3 0  9992,2 51115  53.2168 285.0674 0001230  93.8679 266.2453 15.08845329120051,6917.864,95.437,540.58,538.878,0.0
51115.0,STARLINK-3397,PAYLOAD,2024-03-18 23:43:41,15.08820375,0.0001693,53.2167,284.4761,78.054,282.0642,0.00021916,3.2e-05,0.0,0 STARLINK-3397,1 51115U 22005M   24078.98867697  .00003200  00000-0  21916-3 0  9990,2 51115  53.2167 284.4761 0001693  78.0540 282.0642 15.08820375121180,6917.94,95.439,540.977,538.634,0.0
51115.0,STARLINK-3397,PAYLOAD,2024-03-19 20:23:40,15.08857172,0.0001252,53.2163,280.609,94.4095,265.704,-2.8658e-05,-7.44e-06,0.0,0 STARLINK-3397,1 51115U 22005M   24079.84977949 -.00000744  00000-0 -28658-4 0  9991,2 51115  53.2163 280.6090 0001252  94.4095 265.7040 15.08857172121317,6917.828,95.436,540.559,538.827,0.0
51115.0,STARLINK-3397,PAYLOAD,2024-03-20 12:17:33,15.08837094,0.0001403,53.2158,277.6338,93.7464,266.3689,-0.00017192,-3.023e-05,0.0,0 STARLINK-3397,1 51115U 22005M   24080.51219587 -.00003023  00000-0 -17192-3 0  9997,2 51115  53.2158 277.6338 0001403  93.7464 266.3689 15.08837094120307,6917.889,95.438,540.725,538.784,0.0
51115.0,STARLINK-3397,PAYLOAD,2024-03-20 20:14:30,15.08808707,0.0001468,53.2166,276.1492,117.0384,243.0758,-7.1025e-05,-1.417e-05,0.0,0 STARLINK-3397,1 51115U 22005M   24080.84341328 -.00001417  00000-0 -71025-4 0  9993,2 51115  53.2166 276.1492 0001468 117.0384 243.0758 15.08808707121469,6917.976,95.44,540.857,538.825,0.0
51115.0,STARLINK-3397,PAYLOAD,2024-03-20 23:25:16,15.0882298,0.000128,53.2157,275.5541,91.3758,268.738,5.9397e-05,6.57e-06,0.0,0 STARLINK-3397,1 51115U 22005M   24080.97588456  .00000657  00000-0  59397-4 0  9993,2 51115  53.2157 275.5541 0001280  91.3758 268.7380 15.08822980121484,6917.932,95.439,540.683,538.912,0.0
51115.0,STARLINK-3397,PAYLOAD,2024-03-21 05:46:49,15.088247,0.0001334,53.216,274.3645,99.1629,260.9514,7.6936e-05,9.36e-06,0.0,0 STARLINK-3397,1 51115U 22005M   24081.24084636  .00000936  00000-0  76936-4 0  9993,2 51115  53.2160 274.3645 0001334  99.1629 260.9514 15.08824700120410,6917.927,95.439,540.715,538.869,0.0
51115.0,STARLINK-3397,PAYLOAD,2024-03-21 20:05:16,15.08843634,0.0001216,53.2146,271.6869,81.0067,279.1063,0.00024344,3.589e-05,0.0,0 STARLINK-3397,1 51115U 22005M   24081.83699919  .00003589  00000-0  24344-3 0  9996,2 51115  53.2146 271.6869 0001216  81.0067 279.1063 15.08843634121618,6917.869,95.437,540.575,538.893,0.0
51115.0,STARLINK-3397,PAYLOAD,2024-03-22 21:31:26,15.08867913,0.0001288,53.2145,266.9288,75.7817,284.3318,0.00057075,8.814e-05,0.0,0 STARLINK-3397,1 51115U 22005M   24082.89683323  .00008814  00000-0  57075-3 0  9998,2 51115  53.2145 266.9288 0001288  75.7817 284.3318 15.08867913120662,6917.795,95.436,540.551,538.769,0.0
51115.0,STARLINK-3397,PAYLOAD,2024-03-23 11:49:54,15.08846621,3.39e-05,53.215,264.2503,58.3637,301.7388,-5.1922e-05,-1.114e-05,0.0,0 STARLINK-3397,1 51115U 22005M   24083.49299316 -.00001114  00000-0 -51922-4 0  9994,2 51115  53.2150 264.2503 0000339  58.3637 301.7388 15.08846621121869,6917.86,95.437,539.96,539.491,0.0
51115.0,STARLINK-3397,PAYLOAD,2024-03-23 18:11:27,15.08851074,0.0001138,53.2153,263.063,87.1897,272.9225,0.00012539,1.709e-05,0.0,0 STARLINK-3397,1 51115U 22005M   24083.75795220  .00001709  00000-0  12539-3 0  9996,2 51115  53.2153 263.0630 0001138  87.1897 272.9225 15.08851074120794,6917.847,95.437,540.499,538.924,0.0
51115.0,STARLINK-3397,PAYLOAD,2024-03-24 05:19:08,15.08857151,0.0001029,53.2144,260.9796,91.1395,268.9715,0.00042868,6.544e-05,0.0,0 STARLINK-3397,1 51115U 22005M   24084.22162809  .00006544  00000-0  42868-3 0  9990,2 51115  53.2144 260.9796 0001029  91.1395 268.9715 15.08857151121972,6917.828,95.436,540.405,538.981,0.0
51115.0,STARLINK-3397,PAYLOAD,2024-03-24 14:51:28,15.08831629,0.0001366,53.2161,259.1938,99.2066,260.9081,0.0002162,3.154e-05,0.0,0 STARLINK-3397,1 51115U 22005M   24084.61907480  .00003154  00000-0  21620-3 0  9992,2 51115  53.2161 259.1938 0001366  99.2066 260.9081 15.08831629120921,6917.906,95.438,540.716,538.826,0.0
51115.0,STARLINK-3397,PAYLOAD,2024-03-24 21:13:00,15.08855361,0.0001449,53.2157,258.0046,92.6469,267.4689,0.0010042,0.00015737,0.0,0 STARLINK-3397,1 51115U 22005M   24084.88403504  .00015737  00000-0  10042-2 0  9994,2 51115  53.2157 258.0046 0001449  92.6469 267.4689 15.08855361122073,6917.833,95.437,540.701,538.696,0.0
51115.0,STARLINK-3397,PAYLOAD,2024-03-25 11:31:28,15.08861389,0.0002265,53.2141,255.3293,95.5744,264.5507,0.0013489,0.00021258,0.0,0 STARLINK-3397,1 51115U 22005M   24085.48019462  .00021258  00000-0  13489-2 0  9990,2 51115  53.2141 255.3293 0002265  95.5744 264.5507 15.08861389122169,6917.815,95.436,541.247,538.113,0.0
